[
    {
        "Altitude(m)": 558185.6528953626,
        "Argument of Periapsis(deg)": 0.033114955553567506,
        "Eccentricity": 0.0,
        "Inclination(deg)": 53.0,
        "Latitude(deg)": -17.76231616149579,
        "Longitude(deg)": 7.12150086329066,
        "Mean Anomaly(deg)": -22.269235662112,
        "RAAN(deg)": 124.95071684264009,
        "Satellite Name": "Starlink Shell 1 567",
        "Satellite Number": 567,
        "Semi-Major Axis(m)": 6931778.249405717,
        "Time(s)": 950
    },
    {
        "Altitude(m)": 558036.3698081295,
        "Argument of Periapsis(deg)": 0.03346353403307874,
        "Eccentricity": 0.0,
        "Inclination(deg)": 53.0,
        "Latitude(deg)": -17.27356173803904,
        "Longitude(deg)": 7.493752512635309,
        "Mean Anomaly(deg)": -21.642404458555358,
        "RAAN(deg)": 124.95019807256264,
        "Satellite Name": "Starlink Shell 1 567",
        "Satellite Number": 567,
        "Semi-Major Axis(m)": 6931778.249405717,
        "Time(s)": 960
    },
    {
        "Altitude(m)": 557888.844146111,
        "Argument of Periapsis(deg)": 0.03381211251258998,
        "Eccentricity": 0.0,
        "Inclination(deg)": 53.0,
        "Latitude(deg)": -16.783922427517044,
        "Longitude(deg)": 7.863841350492011,
        "Mean Anomaly(deg)": -21.01557325499857,
        "RAAN(deg)": 124.94967930248514,
        "Satellite Name": "Starlink Shell 1 567",
        "Satellite Number": 567,
        "Semi-Major Axis(m)": 6931778.249405717,
        "Time(s)": 970
    },
    {
        "Altitude(m)": 557743.1250986785,
        "Argument of Periapsis(deg)": 0.034160690992101214,
        "Eccentricity": 0.0,
        "Inclination(deg)": 53.0,
        "Latitude(deg)": -16.29342841545446,
        "Longitude(deg)": 8.231839666069188,
        "Mean Anomaly(deg)": -20.388742051441927,
        "RAAN(deg)": 124.94916053240769,
        "Satellite Name": "Starlink Shell 1 567",
        "Satellite Number": 567,
        "Semi-Major Axis(m)": 6931778.249405717,
        "Time(s)": 980
    },
    {
        "Altitude(m)": 557599.2609017834,
        "Argument of Periapsis(deg)": 0.034509269471612446,
        "Eccentricity": 0.0,
        "Inclination(deg)": 53.0,
        "Latitude(deg)": -15.802109427275932,
        "Longitude(deg)": 8.597819384476246,
        "Mean Anomaly(deg)": -19.76191084788527,
        "RAAN(deg)": 124.94864176233021,
        "Satellite Name": "Starlink Shell 1 567",
        "Satellite Number": 567,
        "Semi-Major Axis(m)": 6931778.249405717,
        "Time(s)": 990
    }
]